{"type": "FeatureCollection", "features": [ {"type": "Feature", "properties": {"norad_id": 65077, "name": "CREW DRAGON 11", "group": "stations", "lat": 17.963441727957115, "lon": 174.29288865884183, "alt_km": 418.64075764297013, "timestamp": "2025-12-09T07:41:31.989639+00:00", "meta": {"OBJECT_NAME": "CREW DRAGON 11", "OBJECT_ID": "2025-166A", "EPOCH": "2025-12-08T20:45:25.501536", "MEAN_MOTION": 15.49428834, "ECCENTRICITY": 0.00033811, "INCLINATION": 51.6308, "RA_OF_ASC_NODE": 161.6653, "ARG_OF_PERICENTER": 221.9847, "MEAN_ANOMALY": 138.0883, "EPHEMERIS_TYPE": 0, "CLASSIFICATION_TYPE": "U", "NORAD_CAT_ID": 65077, "ELEMENT_SET_NO": 999, "REV_AT_EPOCH": 214, "BSTAR": 0.00022803662, "MEAN_MOTION_DOT": 0.00012323, "MEAN_MOTION_DDOT": 0}, "tle": {"line1": "1 65077U 25166A   25342.86487849  .00012323  00000+0  22804-3 0  9994", "line2": "2 65077  51.6308 161.6653 0003381 221.9847 138.0883 15.49428834  2142"}}, "geometry": {"type": "Point", "coordinates": [174.29288865884183, 17.963441727957115]}}, {"type": "Feature", "properties": {"norad_id": 65304, "name": "DRAGON CRS-33", "group": "stations", "lat": 17.963442315291736, "lon": 174.29288919025598, "alt_km": 418.640757561433, "timestamp": "2025-12-09T07:41:31.989651+00:00", "meta": {"OBJECT_NAME": "DRAGON CRS-33", "OBJECT_ID": "2025-186A", "EPOCH": "2025-12-08T20:45:25.501536", "MEAN_MOTION": 15.49428834, "ECCENTRICITY": 0.00033811, "INCLINATION": 51.6308, "RA_OF_ASC_NODE": 161.6653, "ARG_OF_PERICENTER": 221.9847, "MEAN_ANOMALY": 138.0883, "EPHEMERIS_TYPE": 0, "CLASSIFICATION_TYPE": "U", "NORAD_CAT_ID": 65304, "ELEMENT_SET_NO": 999, "REV_AT_EPOCH": 11, "BSTAR": 0.00022803662, "MEAN_MOTION_DOT": 0.00012323, "MEAN_MOTION_DDOT": 0}, "tle": {"line1": "1 65304U 25186A   25342.86487849  .00012323  00000+0  22804-3 0  9999", "line2": "2 65304  51.6308 161.6653 0003381 221.9847 138.0883 15.49428834   110"}}, "geometry": {"type": "Point", "coordinates": [174.29288919025598, 17.963442315291736]}}, {"type": "Feature", "properties": {"norad_id": 65586, "name": "PROGRESS-MS 32", "group": "stations", "lat": 17.963442804736655, "lon": 174.2928896331005, "alt_km": 418.6407574934883, "timestamp": "2025-12-09T07:41:31.989661+00:00", "meta": {"OBJECT_NAME": "PROGRESS-MS 32", "OBJECT_ID": "2025-204A", "EPOCH": "2025-12-08T20:45:25.501536", "MEAN_MOTION": 15.49428834, "ECCENTRICITY": 0.00033811, "INCLINATION": 51.6308, "RA_OF_ASC_NODE": 161.6653, "ARG_OF_PERICENTER": 221.9847, "MEAN_ANOMALY": 138.0883, "EPHEMERIS_TYPE": 0, "CLASSIFICATION_TYPE": "U", "NORAD_CAT_ID": 65586, "ELEMENT_SET_NO": 999, "REV_AT_EPOCH": 27, "BSTAR": 0.00022803662, "MEAN_MOTION_DOT": 0.00012323, "MEAN_MOTION_DDOT": 0}, "tle": {"line1": "1 65586U 25204A   25342.86487849  .00012323  00000+0  22804-3 0  9992", "line2": "2 65586  51.6308 161.6653 0003381 221.9847 138.0883 15.49428834   279"}}, "geometry": {"type": "Point", "coordinates": [174.2928896331005, 17.963442804736655]}}, {"type": "Feature", "properties": {"norad_id": 65616, "name": "CYGNUS NG-23", "group": "stations", "lat": 17.963443294182156, "lon": 174.29289007594562, "alt_km": 418.64075742553905, "timestamp": "2025-12-09T07:41:31.989671+00:00", "meta": {"OBJECT_NAME": "CYGNUS NG-23", "OBJECT_ID": "2025-208A", "EPOCH": "2025-12-08T20:45:25.501536", "MEAN_MOTION": 15.49428834, "ECCENTRICITY": 0.00033811, "INCLINATION": 51.6308, "RA_OF_ASC_NODE": 161.6653, "ARG_OF_PERICENTER": 221.9847, "MEAN_ANOMALY": 138.0883, "EPHEMERIS_TYPE": 0, "CLASSIFICATION_TYPE": "U", "NORAD_CAT_ID": 65616, "ELEMENT_SET_NO": 999, "REV_AT_EPOCH": 22, "BSTAR": 0.00022803662, "MEAN_MOTION_DOT": 0.00012323, "MEAN_MOTION_DDOT": 0}, "tle": {"line1": "1 65616U 25208A   25342.86487849  .00012323  00000+0  22804-3 0  9990", "line2": "2 65616  51.6308 161.6653 0003381 221.9847 138.0883 15.49428834   228"}}, "geometry": {"type": "Point", "coordinates": [174.29289007594562, 17.963443294182156]}}, {"type": "Feature", "properties": {"norad_id": 65729, "name": "DRAGONFLY", "group": "stations", "lat": 51.40575324200674, "lon": -109.91644641223493, "alt_km": 354.6953568071922, "timestamp": "2025-12-09T07:41:31.989681+00:00", "meta": {"OBJECT_NAME": "DRAGONFLY", "OBJECT_ID": "1998-067XH", "EPOCH": "2025-12-08T17:32:47.526432", "MEAN_MOTION": 15.70229086, "ECCENTRICITY": 0.00065245, "INCLINATION": 51.6249, "RA_OF_ASC_NODE": 156.265, "ARG_OF_PERICENTER": 251.495, "MEAN_ANOMALY": 108.5339, "EPHEMERIS_TYPE": 0, "CLASSIFICATION_TYPE": "U", "NORAD_CAT_ID": 65729, "ELEMENT_SET_NO": 999, "REV_AT_EPOCH": 1253, "BSTAR": 0.0013272482, "MEAN_MOTION_DOT": 0.00167478, "MEAN_MOTION_DDOT": 0}, "tle": {"line1": "1 65729U 98067XH  25342.73110563  .00167478  00000+0  13272-2 0  9990", "line2": "2 65729  51.6249 156.2650 0006524 251.4950 108.5339 15.70229086 12536"}}, "geometry": {"type": "Point", "coordinates": [-109.91644641223493, 51.40575324200674]}}, {"type": "Feature", "properties": {"norad_id": 65731, "name": "1998-067XK", "group": "stations", "lat": -8.434864590003905, "lon": -18.68525135833599, "alt_km": 372.40272952523264, "timestamp": "2025-12-09T07:41:31.989694+00:00", "meta": {"OBJECT_NAME": "1998-067XK", "OBJECT_ID": "1998-067XK", "EPOCH": "2025-12-08T12:29:14.710560", "MEAN_MOTION": 15.64682619, "ECCENTRICITY": 0.00053917, "INCLINATION": 51.6277, "RA_OF_ASC_NODE": 158.6227, "ARG_OF_PERICENTER": 219.7303, "MEAN_ANOMALY": 140.3298, "EPHEMERIS_TYPE": 0, "CLASSIFICATION_TYPE": "U", "NORAD_CAT_ID": 65731, "ELEMENT_SET_NO": 999, "REV_AT_EPOCH": 1248, "BSTAR": 0.00099222834, "MEAN_MOTION_DOT": 0.00098864, "MEAN_MOTION_DDOT": 0}, "tle": {"line1": "1 65731U 98067XK  25342.52030915  .00098864  00000+0  99223-3 0  9995", "line2": "2 65731  51.6277 158.6227 0005391 219.7303 140.3298 15.64682619 12486"}}, "geometry": {"type": "Point", "coordinates": [-18.68525135833599, -8.434864590003905]}}, {"type": "Feature", "properties": {"norad_id": 65732, "name": "RSP-03", "group": "stations", "lat": 37.32510942350026, "lon": -63.23600518650965, "alt_km": 361.71722250292987, "timestamp": "2025-12-09T07:41:31.989705+00:00", "meta": {"OBJECT_NAME": "RSP-03", "OBJECT_ID": "1998-067XL", "EPOCH": "2025-12-08T18:54:04.824576", "MEAN_MOTION": 15.67324417, "ECCENTRICITY": 0.00061707, "INCLINATION": 51.626, "RA_OF_ASC_NODE": 156.6485, "ARG_OF_PERICENTER": 224.9015, "MEAN_ANOMALY": 135.1483, "EPHEMERIS_TYPE": 0, "CLASSIFICATION_TYPE": "U", "NORAD_CAT_ID": 65732, "ELEMENT_SET_NO": 999, "REV_AT_EPOCH": 1254, "BSTAR": 0.0012544744, "MEAN_MOTION_DOT": 0.00139916, "MEAN_MOTION_DDOT": 0}, "tle": {"line1": "1 65732U 98067XL  25342.78755584  .00139916  00000+0  12545-2 0  9995", "line2": "2 65732  51.6260 156.6485 0006170 224.9015 135.1483 15.67324417 12544"}}, "geometry": {"type": "Point", "coordinates": [-63.23600518650965, 37.32510942350026]}}, {"type": "Feature", "properties": {"norad_id": 65733, "name": "GHS-01", "group": "stations", "lat": -19.598747850398087, "lon": 136.37073516848346, "alt_km": 352.5299730429524, "timestamp": "2025-12-09T07:41:31.989716+00:00", "meta": {"OBJECT_NAME": "GHS-01", "OBJECT_ID": "1998-067XM", "EPOCH": "2025-12-08T19:36:02.783232", "MEAN_MOTION": 15.72760955, "ECCENTRICITY": 0.00069125, "INCLINATION": 51.6282, "RA_OF_ASC_NODE": 155.3426, "ARG_OF_PERICENTER": 252.4129, "MEAN_ANOMALY": 107.6114, "EPHEMERIS_TYPE": 0, "CLASSIFICATION_TYPE": "U", "NORAD_CAT_ID": 65733, "ELEMENT_SET_NO": 999, "REV_AT_EPOCH": 1256, "BSTAR": 0.0014613084, "MEAN_MOTION_DOT": 0.00206243, "MEAN_MOTION_DDOT": 0}, "tle": {"line1": "1 65733U 98067XM  25342.81669888  .00206243  00000+0  14613-2 0  9997", "line2": "2 65733  51.6282 155.3426 0006912 252.4129 107.6114 15.72760955 12560"}}, "geometry": {"type": "Point", "coordinates": [136.37073516848346, -19.598747850398087]}}, {"type": "Feature", "properties": {"norad_id": 65941, "name": "YOTSUBA-KULOVER", "group": "stations", "lat": 21.264672138995916, "lon": 175.1146828454435, "alt_km": 389.8147116623495, "timestamp": "2025-12-09T07:41:31.989726+00:00", "meta": {"OBJECT_NAME": "YOTSUBA-KULOVER", "OBJECT_ID": "1998-067XN", "EPOCH": "2025-12-08T16:11:16.679040", "MEAN_MOTION": 15.58725095, "ECCENTRICITY": 0.00016918, "INCLINATION": 51.6278, "RA_OF_ASC_NODE": 160.3988, "ARG_OF_PERICENTER": 209.1564, "MEAN_ANOMALY": 150.9334, "EPHEMERIS_TYPE": 0, "CLASSIFICATION_TYPE": "U", "NORAD_CAT_ID": 65941, "ELEMENT_SET_NO": 999, "REV_AT_EPOCH": 922, "BSTAR": 0.00092611573, "MEAN_MOTION_DOT": 0.00072881, "MEAN_MOTION_DDOT": 0}, "tle": {"line1": "1 65941U 98067XN  25342.67449860  .00072881  00000+0  92612-3 0  9993", "line2": "2 65941  51.6278 160.3988 0001691 209.1564 150.9334 15.58725095  9220"}}, "geometry": {"type": "Point", "coordinates": [175.1146828454435, 21.264672138995916]}}, {"type": "Feature", "properties": {"norad_id": 65942, "name": "BOTAN", "group": "stations", "lat": -32.93874970278377, "lon": 125.66657955698484, "alt_km": 386.7982586139142, "timestamp": "2025-12-09T07:41:31.989736+00:00", "meta": {"OBJECT_NAME": "BOTAN", "OBJECT_ID": "1998-067XP", "EPOCH": "2025-12-08T16:31:24.604608", "MEAN_MOTION": 15.61763471, "ECCENTRICITY": 0.00036454, "INCLINATION": 51.6288, "RA_OF_ASC_NODE": 159.7433, "ARG_OF_PERICENTER": 204.4965, "MEAN_ANOMALY": 155.5857, "EPHEMERIS_TYPE": 0, "CLASSIFICATION_TYPE": "U", "NORAD_CAT_ID": 65942, "ELEMENT_SET_NO": 999, "REV_AT_EPOCH": 923, "BSTAR": 0.0012577931, "MEAN_MOTION_DOT": 0.00112002, "MEAN_MOTION_DDOT": 0}, "tle": {"line1": "1 65942U 98067XP  25342.68847922  .00112002  00000+0  12578-2 0  9998", "line2": "2 65942  51.6288 159.7433 0003645 204.4965 155.5857 15.61763471  9239"}}, "geometry": {"type": "Point", "coordinates": [125.66657955698484, -32.93874970278377]}}]}